SL-16 R/B               
1 25400U 98043G   25364.83066950  .00000154  00000+0  83584-4 0  9993
2 25400  98.8149 312.7522 0009268 209.0463 151.0202 14.26030498429174
SL-16 R/B               
1 25407U 98045B   25364.91759614  .00000106  00000+0  77475-4 0  9996
2 25407  71.0125 326.1983 0005787 146.1341 214.0153 14.16181350417362
ISS (ZARYA)             
1 25544U 98067A   25364.72639447  .00016146  00000+0  30091-3 0  9995
2 25544  51.6331  53.3984 0007477 320.8804  39.1643 15.48950977545648
CZ-4B R/B               
1 25732U 99025C   25364.74900390  .00000137  00000+0  87125-4 0  9993
2 25732  98.6743  45.6239 0037114 181.6619 289.1076 14.18248367378392
OKEAN-O                 
1 25860U 99039A   25364.77132867  .00001278  00000+0  17500-3 0  9995
2 25860  97.9578  60.3150 0001299 114.6149 245.5199 14.80195934424199
SL-16 R/B               
1 25861U 99039B   25364.74912337  .00001085  00000+0  14460-3 0  9999
2 25861  98.0101  58.8993 0015981 118.8852 241.3966 14.81615776426652
DELTA 2 R/B             
1 25876U 99041E   25364.84035942  .00003189  00000+0  55058-3 0  9992
2 25876  51.7593 216.1877 0504302 145.1155 218.3944 14.11462339353307
HELIOS 1B               
1 25977U 99064A   25364.69889949  .00003174  00000+0  35772-3 0  9991
2 25977  98.1752 259.8975 0000624  33.7608 326.3647 14.87363770675003
TERRA                   
1 25994U 99068A   25364.89384354  .00000897  00000+0  19220-3 0  9995
2 25994  97.9724  55.9098 0003223  57.7141  53.4530 14.60925205385033
SL-16 R/B               
1 26070U 00006B   25364.84448097  .00000347  00000+0  20051-3 0  9999
2 26070  71.0012 242.5913 0018692 284.2215  75.6832 14.15812520338817
TITAN 4B R/B            
1 26474U 00047B   25364.84006445  .00006036  00000+0  38353-3 0  9994
2 26474  67.9890 234.0162 0037717 122.4457 238.0349 15.08925391382524
ENVISAT                 
1 27386U 02009A   25364.37958830  .00000257  00000+0  97010-4 0  9994
2 27386  98.3625 314.6753 0001115  88.2338  83.3691 14.39006569249200
